{"type":"FeatureCollection", "features": [
{"type":"Feature","geometry":{"type":"Point","coordinates":[112.73623802484002,-7.235432166237756]},"properties":{"Id":1,"Pos_Ekst":"Pos Terpadu Utara","Lokasi":"Jl. Kasuari No.1 (Terminal Kasuari)","Kecamatan":null,"Wilayah":null}},
{"type":"Feature","geometry":{"type":"Point","coordinates":[112.72721996080818,-7.343798809217065]},"properties":{"Id":2,"Pos_Ekst":"Pos Terpadu Selatan","Lokasi":"Kantor Dishub","Kecamatan":null,"Wilayah":null}},
{"type":"Feature","geometry":{"type":"Point","coordinates":[112.78010241277507,-7.28921669314521]},"properties":{"Id":3,"Pos_Ekst":"Pos Terpadu Timur","Lokasi":"Park & Ride Arif Rahman Hakim","Kecamatan":null,"Wilayah":null}},
{"type":"Feature","geometry":{"type":"Point","coordinates":[112.6778633269573,-7.259187695490151]},"properties":{"Id":4,"Pos_Ekst":"Pos Terpadu Barat","Lokasi":"Kantor Kecamatan Tandes","Kecamatan":null,"Wilayah":null}},
{"type":"Feature","geometry":{"type":"Point","coordinates":[112.70905461476852,-7.32470132173377]},"properties":{"Id":10,"Pos_Ekst":"Pos Terpadu Mastrip","Lokasi":"Jl. Bogangin I No.7A","Kecamatan":null,"Wilayah":null}},
{"type":"Feature","geometry":{"type":"Point","coordinates":[112.77557918986855,-7.226838836629565]},"properties":{"Id":6,"Pos_Ekst":"Pos Terpadu Kedung Cowek","Lokasi":"Kantor Kecamatan Kenjeran","Kecamatan":null,"Wilayah":null}},
{"type":"Feature","geometry":{"type":"Point","coordinates":[112.7150915451046,-7.290614552239268]},"properties":{"Id":7,"Pos_Ekst":"Pos Terpadu Dukuh Pakis","Lokasi":"Park & Ride Mayjend Sungkono","Kecamatan":"Kec. Sawahan","Wilayah":"Surabaya Selatan"}},
{"type":"Feature","geometry":{"type":"Point","coordinates":[112.74257914618538,-7.324238136282269]},"properties":{"Id":8,"Pos_Ekst":"Pos Terpadu Mako BPBD","Lokasi":"Kantor BPBD Jemursari","Kecamatan":null,"Wilayah":null}},
{"type":"Feature","geometry":{"type":"Point","coordinates":[112.7424571372585,-7.2593348488301155]},"properties":{"Id":5,"Pos_Ekst":"Pos Terpadu Pusat","Lokasi":"Jl. Genteng Besar","Kecamatan":null,"Wilayah":null}},
{"type":"Feature","geometry":{"type":"Point","coordinates":[112.69588211550857,-7.314263630188094]},"properties":{"Id":9,"Pos_Ekst":"Pos Terpadu PMK Wiyung","Lokasi":"Kantor DPKP Rayon 4 Wiyung","Kecamatan":null,"Wilayah":null}},
{"type":"Feature","geometry":{"type":"Point","coordinates":[112.73634556228227,-7.245014758817222]},"properties":{"Id":0,"Pos_Ekst":"Rayon I Pasar Turi","Lokasi":"Jl. Pasar Turi No. 21","Kecamatan":"Kec. Bubutan","Wilayah":"Surabaya Pusat"}},
{"type":"Feature","geometry":{"type":"Point","coordinates":[112.74379766574933,-7.236291553486947]},"properties":{"Id":0,"Pos_Ekst":"Pos Pembantu Pegirian","Lokasi":"Jl. Pegirian","Kecamatan":"Kec. Semampir","Wilayah":"Surabaya Utara"}},
{"type":"Feature","geometry":{"type":"Point","coordinates":[112.73626935495216,-7.277931978345339]},"properties":{"Id":0,"Pos_Ekst":"Pos Pembantu Grudo","Lokasi":"Komplek Rumah Susun Grudo","Kecamatan":"Kec. Tegalsari","Wilayah":"Surabaya Pusat"}},
{"type":"Feature","geometry":{"type":"Point","coordinates":[112.75977597857897,-7.243119109351329]},"properties":{"Id":0,"Pos_Ekst":"Rayon II Tambakrejo","Lokasi":"Jl. Kenjeran No. 120","Kecamatan":"Kec. Simokerto","Wilayah":"Surabaya Pusat"}},
{"type":"Feature","geometry":{"type":"Point","coordinates":[112.76289940019755,-7.278224771347967]},"properties":{"Id":0,"Pos_Ekst":"Pos Pembantu Menur","Lokasi":"Jl. Menur 31","Kecamatan":"Kec. Mulyorejo","Wilayah":"Surabaya Timur"}},
{"type":"Feature","geometry":{"type":"Point","coordinates":[112.78545806531744,-7.231822015555514]},"properties":{"Id":0,"Pos_Ekst":"Pos Pembantu Bulak","Lokasi":"Jl. Kyai Tambak Deres 252","Kecamatan":"Kec. Bulak","Wilayah":"Surabaya Utara"}},
{"type":"Feature","geometry":{"type":"Point","coordinates":[112.78547955087612,-7.262919547487892]},"properties":{"Id":0,"Pos_Ekst":"Pos Pembantu Mulyorejo","Lokasi":"Jl. Mulyorejo","Kecamatan":"Kec. Mulyorejo","Wilayah":"Surabaya Timur"}},
{"type":"Feature","geometry":{"type":"Point","coordinates":[112.7540984808638,-7.336744117108369]},"properties":{"Id":0,"Pos_Ekst":"Rayon III Rungkut","Lokasi":"Jl. Brebek Industri XIV/8","Kecamatan":"Kec. Rungkut","Wilayah":"Surabaya Timur"}},
{"type":"Feature","geometry":{"type":"Point","coordinates":[112.80182744280702,-7.295346061744402]},"properties":{"Id":0,"Pos_Ekst":"Pos Pembantu Keputih","Lokasi":"Jl. Keputih Tegal 21","Kecamatan":"Kec. Sukolilo","Wilayah":"Surabaya Timur"}},
{"type":"Feature","geometry":{"type":"Point","coordinates":[112.80171880359006,-7.338873028109292]},"properties":{"Id":0,"Pos_Ekst":"Pos Pembantu Gunung Anyar","Lokasi":"Jl. Raya Gunung Anyar Timur 62","Kecamatan":"Kec. Gunung Anyar","Wilayah":"Surabaya Timur"}},
{"type":"Feature","geometry":{"type":"Point","coordinates":[112.76998963903509,-7.322068348986033]},"properties":{"Id":0,"Pos_Ekst":"Pos Pembantu Kalirungkut","Lokasi":"Jl. Kali Rungkut","Kecamatan":"Kec. Rungkut","Wilayah":"Surabaya Timur"}},
{"type":"Feature","geometry":{"type":"Point","coordinates":[112.77149576548857,-7.299867169969513]},"properties":{"Id":0,"Pos_Ekst":"Pos Pembantu Sukolilo","Lokasi":"Jl. Nginden Semolo No.101","Kecamatan":"Kec. Sukolilo","Wilayah":"Surabaya Timur"}},
{"type":"Feature","geometry":{"type":"Point","coordinates":[112.71381030798962,-7.322143439766374]},"properties":{"Id":0,"Pos_Ekst":"Pos Pembantu Jambangan","Lokasi":"Jl. Jambangan Sawah No. 2","Kecamatan":"Kec. Jambangan","Wilayah":"Surabaya Selatan"}},
{"type":"Feature","geometry":{"type":"Point","coordinates":[112.63290806782015,-7.3035768051369745]},"properties":{"Id":0,"Pos_Ekst":"Pos Pembantu Lakarsantri","Lokasi":"Jl. Lakarsantri No. 34","Kecamatan":"Kec. Lakarsantri","Wilayah":"Surabaya Barat"}},
{"type":"Feature","geometry":{"type":"Point","coordinates":[112.68368772972694,-7.3301593992280925]},"properties":{"Id":0,"Pos_Ekst":"Pos Balas Klumprik","Lokasi":"Jl. Balas Klumprik","Kecamatan":"Kec. Wiyung","Wilayah":"Surabaya Selatan"}},
{"type":"Feature","geometry":{"type":"Point","coordinates":[112.66600858133292,-7.340409359886843]},"properties":{"Id":0,"Pos_Ekst":"Pos Pembantu Waru Gunung","Lokasi":"Jl. Mastrip IX/182","Kecamatan":"Kec. Karangpilang","Wilayah":"Surabaya Selatan"}},
{"type":"Feature","geometry":{"type":"Point","coordinates":[112.71381030798962,-7.322143439766374]},"properties":{"Id":0,"Pos_Ekst":"Pos Pembantu Jambangan","Lokasi":"Jl. Jambangan Sawah No. 2","Kecamatan":"Kec. Jambangan","Wilayah":"Surabaya Selatan"}},
{"type":"Feature","geometry":{"type":"Point","coordinates":[112.6793174013436,-7.258215733117854]},"properties":{"Id":0,"Pos_Ekst":"Rayon V Margomulyo","Lokasi":"Jl. Margomulyo Blok I No. 1","Kecamatan":"Kec. Asem Rowo","Wilayah":"Surabaya Barat"}},
{"type":"Feature","geometry":{"type":"Point","coordinates":[112.62543238183538,-7.240304769911821]},"properties":{"Id":0,"Pos_Ekst":"Pos Pembantu Pakal","Lokasi":"Jl. Raya Babat Jerawat No. 1A","Kecamatan":"Kec. Benowo","Wilayah":"Surabaya Barat"}},
{"type":"Feature","geometry":{"type":"Point","coordinates":[112.6531777039544,-7.252212718213575]},"properties":{"Id":0,"Pos_Ekst":"Pos Pembantu Kandangan","Lokasi":"Jl. Raya Kandangan","Kecamatan":"Kec. Benowo","Wilayah":"Surabaya Barat"}},
{"type":"Feature","geometry":{"type":"Point","coordinates":[112.65994157567341,-7.2225205544864615]},"properties":{"Id":0,"Pos_Ekst":"Pos Pembantu Tambak Oso Wilangun","Lokasi":"Jl. Tambak Osowilangun","Kecamatan":"Kec. Benowo","Wilayah":"Surabaya Barat"}},
{"type":"Feature","geometry":{"type":"Point","coordinates":[112.69588211550857,-7.314263630188094]},"properties":{"Id":0,"Pos_Ekst":"Rayon IV Wiyung","Lokasi":"Jl. Raya Menganti Wiyung","Kecamatan":"Kec. Wiyung","Wilayah":"Surabaya Selatan"}},
{"type":"Feature","geometry":{"type":"Point","coordinates":[112.77002776553165,-7.322226430586693]},"properties":{"Id":0,"Pos_Ekst":"Pos Pembantu Kalirungkut","Lokasi":"Jl. Kali Rungkut","Kecamatan":"Kec. Rungkut","Wilayah":"Surabaya Timur"}}
]}