{
"type": "FeatureCollection",
"name": "TITIK_SAMPAH",
"crs": { "type": "name", "properties": { "name": "urn:ogc:def:crs:OGC:1.3:CRS84" } },
"features": [
{ "type": "Feature", "properties": { "Id": 0, "Alamat": "jl. Kalibokor selatan bawah sutet", "Kelurahan": "Barata Jaya", "Kecamatan": "Gubeng", "Keterangan": null, "ket": "luar jangkauan", "mix_100m": null }, "geometry": { "type": "Point", "coordinates": [ 112.76017854766674, -7.287499073730499 ] } },
{ "type": "Feature", "properties": { "Id": 0, "Alamat": "Tandes lor", "Kelurahan": "Tanjungsari", "Kecamatan": "Sukomanunggal", "Keterangan": null, "ket": "luar jangkauan", "mix_100m": "Masuk" }, "geometry": { "type": "Point", "coordinates": [ 112.68854756623135, -7.259648722585855 ] } },
{ "type": "Feature", "properties": { "Id": 0, "Alamat": "Jl Pandegiling antara (Samratulangi - Teuku umar)", "Kelurahan": "Dr Soetomo", "Kecamatan": "Tegalsari", "Keterangan": null, "ket": "luar jangkauan", "mix_100m": "Masuk" }, "geometry": { "type": "Point", "coordinates": [ 112.738249566338851, -7.276809628451597 ] } },
{ "type": "Feature", "properties": { "Id": 0, "Alamat": "Jl Teuku umar", "Kelurahan": "Dr Soetomo", "Kecamatan": "Tegalsari", "Keterangan": null, "ket": "luar jangkauan", "mix_100m": "Masuk" }, "geometry": { "type": "Point", "coordinates": [ 112.738067699071138, -7.277355125999446 ] } },
{ "type": "Feature", "properties": { "Id": 0, "Alamat": "Jl Arjuno - Dieng", "Kelurahan": "Sawahan", "Kecamatan": "Sawahan", "Keterangan": null, "ket": "luar jangkauan", "mix_100m": null }, "geometry": { "type": "Point", "coordinates": [ 112.727325610962211, -7.256551139475294 ] } },
{ "type": "Feature", "properties": { "Id": 0, "Alamat": "Jl Arjuno - merapi", "Kelurahan": "Sawahan", "Kecamatan": "Sawahan", "Keterangan": null, "ket": "luar jangkauan", "mix_100m": null }, "geometry": { "type": "Point", "coordinates": [ 112.726762310007786, -7.26055734943418 ] } },
{ "type": "Feature", "properties": { "Id": 0, "Alamat": "Jl Anjasmoro", "Kelurahan": "Sawahan", "Kecamatan": "Sawahan", "Keterangan": null, "ket": "luar jangkauan", "mix_100m": null }, "geometry": { "type": "Point", "coordinates": [ 112.728672066619211, -7.258172489755414 ] } },
{ "type": "Feature", "properties": { "Id": 0, "Alamat": "Jl Widodaren", "Kelurahan": "Sawahan", "Kecamatan": "Sawahan", "Keterangan": null, "ket": "luar jangkauan", "mix_100m": null }, "geometry": { "type": "Point", "coordinates": [ 112.731543475408571, -7.258620698159699 ] } },
{ "type": "Feature", "properties": { "Id": 0, "Alamat": "Jl Arjuno depan makam", "Kelurahan": "Sawahan", "Kecamatan": "Sawahan", "Keterangan": null, "ket": "luar jangkauan", "mix_100m": "Masuk" }, "geometry": { "type": "Point", "coordinates": [ 112.728277755951211, -7.267580057021942 ] } },
{ "type": "Feature", "properties": { "Id": 0, "Alamat": "jl kapas krampung", "Kelurahan": "Ploso", "Kecamatan": "Tambaksari", "Keterangan": null, "ket": "luar jangkauan", "mix_100m": null }, "geometry": { "type": "Point", "coordinates": [ 112.755801963669441, -7.249157063692637 ] } },
{ "type": "Feature", "properties": { "Id": 0, "Alamat": "bantaran tambang boyo", "Kelurahan": "Pacar Kembang", "Kecamatan": "Tambaksari", "Keterangan": null, "ket": "masuk", "mix_100m": "Masuk" }, "geometry": { "type": "Point", "coordinates": [ 112.760493010255246, -7.259317639297575 ] } },
{ "type": "Feature", "properties": { "Id": 0, "Alamat": "jl Kedung cowek 92 seng - seng", "Kelurahan": "Kapas madya baru", "Kecamatan": "Tambaksari", "Keterangan": null, "ket": "luar jangkauan", "mix_100m": "Masuk" }, "geometry": { "type": "Point", "coordinates": [ 112.769488791812634, -7.2425364633602 ] } },
{ "type": "Feature", "properties": { "Id": 0, "Alamat": "Bantaran kali Jatisrono", "Kelurahan": "Ujung", "Kecamatan": "Semampir", "Keterangan": null, "ket": "masuk", "mix_100m": "Masuk" }, "geometry": { "type": "Point", "coordinates": [ 112.749314207425783, -7.219136779932224 ] } },
{ "type": "Feature", "properties": { "Id": 0, "Alamat": "banyu urip pasar asem", "Kelurahan": "Banyu urip", "Kecamatan": "Sawahan", "Keterangan": null, "ket": "luar jangkauan", "mix_100m": "Masuk" }, "geometry": { "type": "Point", "coordinates": [ 112.714164940907239, -7.268221328900925 ] } },
{ "type": "Feature", "properties": { "Id": 0, "Alamat": "Jl Pandegiling", "Kelurahan": "Dr Soetomo", "Kecamatan": "Tegalsari", "Keterangan": null, "ket": "luar jangkauan", "mix_100m": "Masuk" }, "geometry": { "type": "Point", "coordinates": [ 112.729685430291369, -7.274766784149723 ] } },
{ "type": "Feature", "properties": { "Id": 0, "Alamat": "Jl Arjuno 136 E", "Kelurahan": "Sawahan", "Kecamatan": "Sawahan", "Keterangan": null, "ket": "luar jangkauan", "mix_100m": "Masuk" }, "geometry": { "type": "Point", "coordinates": [ 112.727589095093734, -7.266316834048857 ] } },
{ "type": "Feature", "properties": { "Id": 0, "Alamat": "samping makam tanah kali kedinding", "Kelurahan": "Tanah Kali Kedinding", "Kecamatan": "Kenjeran", "Keterangan": null, "ket": "masuk", "mix_100m": "Masuk" }, "geometry": { "type": "Point", "coordinates": [ 112.776042088233467, -7.223520021464656 ] } },
{ "type": "Feature", "properties": { "Id": 0, "Alamat": null, "Kelurahan": "Ketabang", "Kecamatan": "Genteng", "Keterangan": "Jl taman kusuma bangsa (Sekitaran TMP kusuma bangsa sisi utara)", "ket": "luar jangkauan", "mix_100m": "Masuk" }, "geometry": { "type": "Point", "coordinates": [ 112.749088135758896, -7.251900131618614 ] } },
{ "type": "Feature", "properties": { "Id": 0, "Alamat": null, "Kelurahan": "Peneleh", "Kecamatan": "Genteng", "Keterangan": "Bantaran sungai penele", "ket": "luar jangkauan", "mix_100m": "Masuk" }, "geometry": { "type": "Point", "coordinates": [ 112.741888091862933, -7.248832228401586 ] } },
{ "type": "Feature", "properties": { "Id": 0, "Alamat": null, "Kelurahan": "Kapasari", "Kecamatan": "Genteng", "Keterangan": "Jl Gembong (selatan viaduck)", "ket": "luar jangkauan", "mix_100m": "Masuk" }, "geometry": { "type": "Point", "coordinates": [ 112.747587395676376, -7.243816967123898 ] } },
{ "type": "Feature", "properties": { "Id": 0, "Alamat": null, "Kelurahan": "Kapasari", "Kecamatan": "Genteng", "Keterangan": "Jl Gembong tebasan sisi selatan mendekati TL perempatan kapasari", "ket": "luar jangkauan", "mix_100m": "Masuk" }, "geometry": { "type": "Point", "coordinates": [ 112.749729894092212, -7.245115962476199 ] } },
{ "type": "Feature", "properties": { "Id": 0, "Alamat": null, "Kelurahan": "Kapasan", "Kecamatan": "Simokerto", "Keterangan": "Jl kenjeran depan gang donorejo", "ket": "luar jangkauan", "mix_100m": "Masuk" }, "geometry": { "type": "Point", "coordinates": [ 112.755383493826997, -7.241614610491491 ] } },
{ "type": "Feature", "properties": { "Id": 0, "Alamat": null, "Kelurahan": "Peneleh", "Kecamatan": "Genteng", "Keterangan": "Bantaran sungai penele depan jl lawang seketeng IV", "ket": "luar jangkauan", "mix_100m": "Masuk" }, "geometry": { "type": "Point", "coordinates": [ 112.740878962609429, -7.249657533486025 ] } },
{ "type": "Feature", "properties": { "Id": 0, "Alamat": null, "Kelurahan": "Simolawang", "Kecamatan": "Simokerto", "Keterangan": "Jl pegirian (depan hotel kalimantan)", "ket": "masuk", "mix_100m": "Masuk" }, "geometry": { "type": "Point", "coordinates": [ 112.744474090243017, -7.231765033685047 ] } },
{ "type": "Feature", "properties": { "Id": 0, "Alamat": null, "Kelurahan": "Alon - alon Contong", "Kecamatan": "Bubutan", "Keterangan": "Jl johar mendekati per4an sulung", "ket": "masuk", "mix_100m": "Masuk" }, "geometry": { "type": "Point", "coordinates": [ 112.742213285025983, -7.245058923693822 ] } },
{ "type": "Feature", "properties": { "Id": 0, "Alamat": null, "Kelurahan": "Jepara", "Kecamatan": "Bubutan", "Keterangan": "Jl dupak depan nomor 35", "ket": "luar jangkauan", "mix_100m": "Masuk" }, "geometry": { "type": "Point", "coordinates": [ 112.729140427116576, -7.244969034747391 ] } },
{ "type": "Feature", "properties": { "Id": 0, "Alamat": null, "Kelurahan": "Jepara", "Kecamatan": "Bubutan", "Keterangan": "Jl dupak (timur nya dupak perahu, barat nya dealer yamaha)", "ket": "masuk", "mix_100m": "Masuk" }, "geometry": { "type": "Point", "coordinates": [ 112.728061936415727, -7.244903837515833 ] } },
{ "type": "Feature", "properties": { "Id": 0, "Alamat": null, "Kelurahan": "Tembok Dukuh", "Kecamatan": "Bubutan", "Keterangan": "Jl kalibutuh depan gedung succofindo", "ket": "luar jangkauan", "mix_100m": null }, "geometry": { "type": "Point", "coordinates": [ 112.717193516273056, -7.254478370252629 ] } },
{ "type": "Feature", "properties": { "Id": 0, "Alamat": null, "Kelurahan": "Darmo", "Kecamatan": "Wonokromo", "Keterangan": "Jl Kembang kuning depan masjid Rahmat", "ket": "masuk", "mix_100m": "Masuk" }, "geometry": { "type": "Point", "coordinates": [ 112.72939919944983, -7.282090666864748 ] } },
{ "type": "Feature", "properties": { "Id": 0, "Alamat": null, "Kelurahan": "Darmo", "Kecamatan": "Wonokromo", "Keterangan": "Jl Kembang kuning pojok Pasar Pakis", "ket": "masuk", "mix_100m": "Masuk" }, "geometry": { "type": "Point", "coordinates": [ 112.730131954466671, -7.285480209067617 ] } },
{ "type": "Feature", "properties": { "Id": 0, "Alamat": null, "Kelurahan": "Tembok Dukuh", "Kecamatan": "Bubutan", "Keterangan": "Jl Demak selatan sisi barat depan AKS", "ket": "luar jangkauan", "mix_100m": "Masuk" }, "geometry": { "type": "Point", "coordinates": [ 112.72045992136988, -7.251951194290585 ] } },
{ "type": "Feature", "properties": { "Id": 0, "Alamat": null, "Kelurahan": "Simokerto", "Kecamatan": "Simokerto", "Keterangan": "Jl Sidotopo wetan", "ket": "luar jangkauan", "mix_100m": "Masuk" }, "geometry": { "type": "Point", "coordinates": [ 112.758114353408786, -7.237127811524386 ] } },
{ "type": "Feature", "properties": { "Id": 0, "Alamat": null, "Kelurahan": "Mojo", "Kecamatan": "Gubeng", "Keterangan": "jl Menur depan makam", "ket": "luar jangkauan", "mix_100m": null }, "geometry": { "type": "Point", "coordinates": [ 112.761237118374254, -7.272349426144062 ] } },
{ "type": "Feature", "properties": { "Id": 0, "Alamat": null, "Kelurahan": "Sidotopo wetan", "Kecamatan": "Kenjeran", "Keterangan": "Bantaran kali tebu", "ket": "masuk", "mix_100m": "Masuk" }, "geometry": { "type": "Point", "coordinates": [ 112.768239499732786, -7.223363876223945 ] } },
{ "type": "Feature", "properties": { "Id": 0, "Alamat": null, "Kelurahan": "Kapasari", "Kecamatan": "Genteng", "Keterangan": "Jl kapasari sisi barat depan persil 11", "ket": "luar jangkauan", "mix_100m": "Masuk" }, "geometry": { "type": "Point", "coordinates": [ 112.7510648277961, -7.246615612253846 ] } },
{ "type": "Feature", "properties": { "Id": 0, "Alamat": "Asemrowo", "Kelurahan": "Asemrowo", "Kecamatan": "Asemrowo", "Keterangan": null, "ket": "luar jangkauan", "mix_100m": null }, "geometry": { "type": "Point", "coordinates": [ 112.715814080863694, -7.249665196568618 ] } },
{ "type": "Feature", "properties": { "Id": 0, "Alamat": "Bantaran kali Jati purwo", "Kelurahan": "Wonokusumo", "Kecamatan": "Semampir", "Keterangan": null, "ket": "masuk", "mix_100m": "Masuk" }, "geometry": { "type": "Point", "coordinates": [ 112.749962655583886, -7.222033419583295 ] } },
{ "type": "Feature", "properties": { "Id": 0, "Alamat": "batas kota lingkar emas", "Kelurahan": "Pagesangan", "Kecamatan": "Jambangan", "Keterangan": null, "ket": "luar jangkauan", "mix_100m": null }, "geometry": { "type": "Point", "coordinates": [ 112.71317474489409, -7.340432271669854 ] } },
{ "type": "Feature", "properties": { "Id": 0, "Alamat": "Jl dupak, depan persil no 21", "Kelurahan": "Jepar", "Kecamatan": "Bubutan", "Keterangan": null, "ket": "luar jangkauan", "mix_100m": "Masuk" }, "geometry": { "type": "Point", "coordinates": [ 112.730545143361169, -7.245293425667759 ] } },
{ "type": "Feature", "properties": { "Id": 0, "Alamat": "Raya simo pomahan (pintu keluar tol)", "Kelurahan": "Simomulyo baru", "Kecamatan": "komanunggal", "Keterangan": null, "ket": "luar jangkauan", "mix_100m": null }, "geometry": { "type": "Point", "coordinates": [ 112.706818350144758, -7.265754026448461 ] } },
{ "type": "Feature", "properties": { "Id": 0, "Alamat": "Depan PUSKUD krembangan", "Kelurahan": "Indrapura baru", "Kecamatan": "Krembangan", "Keterangan": null, "ket": "luar jangkauan", "mix_100m": null }, "geometry": { "type": "Point", "coordinates": [ 112.733169647430444, -7.242813976015713 ] } },
{ "type": "Feature", "properties": { "Id": 0, "Alamat": "Bantaran kali kepiting", "Kelurahan": "Pacarkembang", "Kecamatan": "Tambak sari", "Keterangan": null, "ket": "luar jangkauan", "mix_100m": "Masuk" }, "geometry": { "type": "Point", "coordinates": [ 112.769298193612499, -7.263196438991742 ] } },
{ "type": "Feature", "properties": { "Id": 0, "Alamat": "bantaran sutorejo", "Kelurahan": "Dukuh sutorejo", "Kecamatan": "Mulyorejo", "Keterangan": null, "ket": "luar jangkauan", "mix_100m": null }, "geometry": { "type": "Point", "coordinates": [ 112.788345778964512, -7.261442776230417 ] } },
{ "type": "Feature", "properties": { "Id": 0, "Alamat": "Jl Dupak (mini boozem)", "Kelurahan": "Jepara", "Kecamatan": "Bubutan", "Keterangan": null, "ket": "luar jangkauan", "mix_100m": "Masuk" }, "geometry": { "type": "Point", "coordinates": [ 112.732069345004518, -7.245531320484209 ] } },
{ "type": "Feature", "properties": { "Id": 0, "Alamat": "Jembatan jl semarang (sebelah SD BUbutan IV)", "Kelurahan": "Bubutan", "Kecamatan": "Bubutan", "Keterangan": null, "ket": "luar jangkauan", "mix_100m": "Masuk" }, "geometry": { "type": "Point", "coordinates": [ 112.72930430016811, -7.251658498971157 ] } },
{ "type": "Feature", "properties": { "Id": 0, "Alamat": "jl Kertajaya jalur tengah", "Kelurahan": "Kertajaya", "Kecamatan": "Gubeng", "Keterangan": null, "ket": "luar jangkauan", "mix_100m": "Masuk" }, "geometry": { "type": "Point", "coordinates": [ 112.756832720779116, -7.278311793481961 ] } },
{ "type": "Feature", "properties": { "Id": 0, "Alamat": "Kalibokor1", "Kelurahan": "Ngagel", "Kecamatan": "Wonokromo", "Keterangan": null, "ket": "luar jangkauan", "mix_100m": "Masuk" }, "geometry": { "type": "Point", "coordinates": [ 112.74767628830952, -7.283079252999679 ] } },
{ "type": "Feature", "properties": { "Id": 0, "Alamat": "jl Upa jiwa belakang Marvell", "Kelurahan": "Ngagel", "Kecamatan": "Wonokromo", "Keterangan": null, "ket": "luar jangkauan", "mix_100m": null }, "geometry": { "type": "Point", "coordinates": [ 112.74646990157953, -7.288458024603353 ] } },
{ "type": "Feature", "properties": { "Id": 0, "Alamat": "bantaran mulyorejo", "Kelurahan": "Mulyorejo", "Kecamatan": "Mulyorejo", "Keterangan": null, "ket": "luar jangkauan", "mix_100m": null }, "geometry": { "type": "Point", "coordinates": [ 112.778266450547235, -7.264417323073383 ] } },
{ "type": "Feature", "properties": { "Id": 0, "Alamat": "jl kidal", "Kelurahan": "Pacarkeling", "Kecamatan": "tambaksari", "Keterangan": null, "ket": "luar jangkauan", "mix_100m": null }, "geometry": { "type": "Point", "coordinates": [ 112.754752140995222, -7.263644950030884 ] } },
{ "type": "Feature", "properties": { "Id": 0, "Alamat": "Darmo permai 2 sisi barat", "Kelurahan": "Tanjungsari", "Kecamatan": "Sukomanunggal", "Keterangan": null, "ket": "luar jangkauan", "mix_100m": null }, "geometry": { "type": "Point", "coordinates": [ 112.685805311158944, -7.280082439170025 ] } },
{ "type": "Feature", "properties": { "Id": 0, "Alamat": "Darmo harapan", "Kelurahan": "Tanjungsari", "Kecamatan": "Sukomanunggal", "Keterangan": null, "ket": "luar jangkauan", "mix_100m": null }, "geometry": { "type": "Point", "coordinates": [ 112.689367364284649, -7.276194399886472 ] } },
{ "type": "Feature", "properties": { "Id": 0, "Alamat": "Jl Jemur wonosari samping lps", "Kelurahan": "Jemur wonosari", "Kecamatan": "Wonocolo", "Keterangan": null, "ket": "masuk", "mix_100m": "Masuk" }, "geometry": { "type": "Point", "coordinates": [ 112.738830590206362, -7.325128626199959 ] } },
{ "type": "Feature", "properties": { "Id": 0, "Alamat": null, "Kelurahan": "Krembangan \r\nselatan", "Kecamatan": "Krembangan", "Keterangan": "kasuari", "ket": null, "mix_100m": null }, "geometry": { "type": "Point", "coordinates": [ 112.737609540312221, -7.231882325928662 ] } },
{ "type": "Feature", "properties": { "Id": 0, "Alamat": null, "Kelurahan": "Indrapura baru", "Kecamatan": "Krembangan", "Keterangan": "Sepanjang Jl Indrapura", "ket": null, "mix_100m": "Masuk" }, "geometry": { "type": "Point", "coordinates": [ 112.732768489678065, -7.241081563585534 ] } },
{ "type": "Feature", "properties": { "Id": 0, "Alamat": null, "Kelurahan": "kalianak", "Kecamatan": "Asemrowo", "Keterangan": "kalianak", "ket": null, "mix_100m": "Masuk" }, "geometry": { "type": "Point", "coordinates": [ 112.705274530504667, -7.229661431967798 ] } },
{ "type": "Feature", "properties": { "Id": 0, "Alamat": null, "Kelurahan": "Asemrowo", "Kecamatan": "Asemrowo", "Keterangan": "tanjungsari", "ket": null, "mix_100m": "Masuk" }, "geometry": { "type": "Point", "coordinates": [ 112.704463967554275, -7.253533466386801 ] } },
{ "type": "Feature", "properties": { "Id": 0, "Alamat": null, "Kelurahan": "Lapangan Putro agung", "Kecamatan": "Rangkah", "Keterangan": "Tambaksari", "ket": null, "mix_100m": null }, "geometry": { "type": "Point", "coordinates": [ 112.765773100344035, -7.249071340495026 ] } },
{ "type": "Feature", "properties": { "Id": 0, "Alamat": null, "Kelurahan": "Ploso", "Kecamatan": "Tambaksari", "Keterangan": "Jembatan Putro agung", "ket": null, "mix_100m": "Masuk" }, "geometry": { "type": "Point", "coordinates": [ 112.768759323906281, -7.249144865840106 ] } },
{ "type": "Feature", "properties": { "Id": 0, "Alamat": null, "Kelurahan": "Pacar kembang", "Kecamatan": "Tambaksari", "Keterangan": "bantaran pacar kembang (beberapa titik)", "ket": null, "mix_100m": null }, "geometry": { "type": "Point", "coordinates": [ 112.760039598693481, -7.260471195406279 ] } },
{ "type": "Feature", "properties": { "Id": 0, "Alamat": null, "Kelurahan": "Tanjungsari", "Kecamatan": "Sukomanunggal", "Keterangan": "Patimura tanah kosong", "ket": null, "mix_100m": null }, "geometry": { "type": "Point", "coordinates": [ 112.690425811318846, -7.276414507523612 ] } },
{ "type": "Feature", "properties": { "Id": 0, "Alamat": null, "Kelurahan": "Tanjungsari", "Kecamatan": "Sukomanunggal", "Keterangan": "samping sinar", "ket": null, "mix_100m": null }, "geometry": { "type": "Point", "coordinates": [ 112.693380784626783, -7.26955698022014 ] } },
{ "type": "Feature", "properties": { "Id": 0, "Alamat": null, "Kelurahan": "Simomulyo", "Kecamatan": "Sukomanunggal", "Keterangan": "Jl simo mulyo (seng - seng)", "ket": null, "mix_100m": null }, "geometry": { "type": "Point", "coordinates": [ 112.710818069742956, -7.266454460501148 ] } },
{ "type": "Feature", "properties": { "Id": 0, "Alamat": null, "Kelurahan": "Krembangan utara", "Kecamatan": "Pabean cantikan", "Keterangan": "Kalisosok", "ket": null, "mix_100m": null }, "geometry": { "type": "Point", "coordinates": [ 112.73447864148919, -7.232249495027727 ] } },
{ "type": "Feature", "properties": { "Id": 0, "Alamat": null, "Kelurahan": "Dukuh kupang barat", "Kecamatan": "Dukuh pakis", "Keterangan": "Dukuh kupang barat 1", "ket": null, "mix_100m": null }, "geometry": { "type": "Point", "coordinates": [ 112.709979618545347, -7.283750311574339 ] } },
{ "type": "Feature", "properties": { "Id": 0, "Alamat": null, "Kelurahan": "Bangkingan", "Kecamatan": "Lakarsantri", "Keterangan": "Aspol bangkingan", "ket": null, "mix_100m": null }, "geometry": { "type": "Point", "coordinates": [ 112.65111103123968, -7.318987682637489 ] } },
{ "type": "Feature", "properties": { "Id": 0, "Alamat": null, "Kelurahan": "babatan", "Kecamatan": "Wiyung", "Keterangan": "wiyung PDAM", "ket": null, "mix_100m": "Masuk" }, "geometry": { "type": "Point", "coordinates": [ 112.687909752613976, -7.312495025850402 ] } },
{ "type": "Feature", "properties": { "Id": 0, "Alamat": null, "Kelurahan": "Sidotopo", "Kecamatan": "Semampir", "Keterangan": "Sidotopo seng seng", "ket": null, "mix_100m": null }, "geometry": { "type": "Point", "coordinates": [ 112.754672352902375, -7.235704938660111 ] } }
]
}
